{"type": "FeatureCollection", "features": [ {"type": "Feature", "properties": {"norad_id": 36632, "name": "COSMOS 2251 DEB", "group": "cosmos-2251-debris", "lat": -65.15471306520637, "lon": 165.54451475144302, "alt_km": 777.002442158152, "timestamp": "2025-12-04T17:48:40.562406+00:00", "meta": {"OBJECT_NAME": "COSMOS 2251 DEB", "OBJECT_ID": "1993-036BEW", "EPOCH": "2025-12-02T14:44:27.820896", "MEAN_MOTION": 14.43079898, "ECCENTRICITY": 0.00315122, "INCLINATION": 74.0016, "RA_OF_ASC_NODE": 311.214, "ARG_OF_PERICENTER": 61.7706, "MEAN_ANOMALY": 298.6626, "EPHEMERIS_TYPE": 0, "CLASSIFICATION_TYPE": "U", "NORAD_CAT_ID": 36632, "ELEMENT_SET_NO": 999, "REV_AT_EPOCH": 65069, "BSTAR": 0.0010615143, "MEAN_MOTION_DOT": 3.557e-05, "MEAN_MOTION_DDOT": 0}, "tle": {"line1": "1 36632U 93036BEW 25336.61421089  .00003557  00000+0  10615-2 0  9995", "line2": "2 36632  74.0016 311.2140 0031512  61.7706 298.6626 14.43079898650699"}}, "geometry": {"type": "Point", "coordinates": [165.54451475144302, -65.15471306520637]}}, {"type": "Feature", "properties": {"norad_id": 37084, "name": "COSMOS 2251 DEB", "group": "cosmos-2251-debris", "lat": 30.496087009534026, "lon": -172.5499198087526, "alt_km": 607.6585120104683, "timestamp": "2025-12-04T17:48:40.562416+00:00", "meta": {"OBJECT_NAME": "COSMOS 2251 DEB", "OBJECT_ID": "1993-036BFE", "EPOCH": "2025-12-01T06:28:31.045728", "MEAN_MOTION": 15.00732489, "ECCENTRICITY": 0.0098181, "INCLINATION": 74.0271, "RA_OF_ASC_NODE": 184.8055, "ARG_OF_PERICENTER": 268.0487, "MEAN_ANOMALY": 90.9454, "EPHEMERIS_TYPE": 0, "CLASSIFICATION_TYPE": "U", "NORAD_CAT_ID": 37084, "ELEMENT_SET_NO": 999, "REV_AT_EPOCH": 66095, "BSTAR": 0.00060454, "MEAN_MOTION_DOT": 8.458e-05, "MEAN_MOTION_DDOT": 0}, "tle": {"line1": "1 37084U 93036BFE 25335.26980377  .00008458  00000+0  60454-3 0  9999", "line2": "2 37084  74.0271 184.8055 0098181 268.0487  90.9454 15.00732489660954"}}, "geometry": {"type": "Point", "coordinates": [-172.5499198087526, 30.496087009534026]}}, {"type": "Feature", "properties": {"norad_id": 37085, "name": "COSMOS 2251 DEB", "group": "cosmos-2251-debris", "lat": 18.446988068761787, "lon": -121.05549057037396, "alt_km": 438.4392263982345, "timestamp": "2025-12-04T17:48:40.562427+00:00", "meta": {"OBJECT_NAME": "COSMOS 2251 DEB", "OBJECT_ID": "1993-036BFF", "EPOCH": "2025-12-02T23:36:37.668384", "MEAN_MOTION": 15.39020756, "ECCENTRICITY": 0.0022856, "INCLINATION": 73.9503, "RA_OF_ASC_NODE": 237.2473, "ARG_OF_PERICENTER": 76.375, "MEAN_ANOMALY": 284, "EPHEMERIS_TYPE": 0, "CLASSIFICATION_TYPE": "U", "NORAD_CAT_ID": 37085, "ELEMENT_SET_NO": 999, "REV_AT_EPOCH": 66987, "BSTAR": 0.0028642077, "MEAN_MOTION_DOT": 0.00113322, "MEAN_MOTION_DDOT": 0}, "tle": {"line1": "1 37085U 93036BFF 25336.98376931  .00113322  00000+0  28642-2 0  9994", "line2": "2 37085  73.9503 237.2473 0022856  76.3750 284.0000 15.39020756669879"}}, "geometry": {"type": "Point", "coordinates": [-121.05549057037396, 18.446988068761787]}}, {"type": "Feature", "properties": {"norad_id": 37089, "name": "COSMOS 2251 DEB", "group": "cosmos-2251-debris", "lat": 17.659903984170242, "lon": -24.385290178564063, "alt_km": 734.2642027680331, "timestamp": "2025-12-04T17:48:40.562438+00:00", "meta": {"OBJECT_NAME": "COSMOS 2251 DEB", "OBJECT_ID": "1993-036BFK", "EPOCH": "2025-11-27T19:45:58.315104", "MEAN_MOTION": 14.52523041, "ECCENTRICITY": 0.0136019, "INCLINATION": 74.0379, "RA_OF_ASC_NODE": 173.8866, "ARG_OF_PERICENTER": 277.3049, "MEAN_ANOMALY": 81.267, "EPHEMERIS_TYPE": 0, "CLASSIFICATION_TYPE": "U", "NORAD_CAT_ID": 37089, "ELEMENT_SET_NO": 999, "REV_AT_EPOCH": 65893, "BSTAR": 0.0020033475, "MEAN_MOTION_DOT": 9.221e-05, "MEAN_MOTION_DDOT": 0}, "tle": {"line1": "1 37089U 93036BFK 25331.82359161  .00009221  00000+0  20033-2 0  9990", "line2": "2 37089  74.0379 173.8866 0136019 277.3049  81.2670 14.52523041658932"}}, "geometry": {"type": "Point", "coordinates": [-24.385290178564063, 17.659903984170242]}}, {"type": "Feature", "properties": {"norad_id": 37094, "name": "COSMOS 2251 DEB", "group": "cosmos-2251-debris", "lat": 0.18035397717407875, "lon": 135.8749701505142, "alt_km": 782.5863453487364, "timestamp": "2025-12-04T17:48:40.562448+00:00", "meta": {"OBJECT_NAME": "COSMOS 2251 DEB", "OBJECT_ID": "1993-036BFQ", "EPOCH": "2025-12-01T04:38:30.122016", "MEAN_MOTION": 14.37719988, "ECCENTRICITY": 0.0084296, "INCLINATION": 74.1075, "RA_OF_ASC_NODE": 142.3264, "ARG_OF_PERICENTER": 111.6851, "MEAN_ANOMALY": 249.3305, "EPHEMERIS_TYPE": 0, "CLASSIFICATION_TYPE": "U", "NORAD_CAT_ID": 37094, "ELEMENT_SET_NO": 999, "REV_AT_EPOCH": 84340, "BSTAR": 0.0011679, "MEAN_MOTION_DOT": 3.636e-05, "MEAN_MOTION_DDOT": 0}, "tle": {"line1": "1 37094U 93036BFQ 25335.19340419  .00003636  00000+0  11679-2 0  9996", "line2": "2 37094  74.1075 142.3264 0084296 111.6851 249.3305 14.37719988843405"}}, "geometry": {"type": "Point", "coordinates": [135.8749701505142, 0.18035397717407875]}}, {"type": "Feature", "properties": {"norad_id": 37095, "name": "COSMOS 2251 DEB", "group": "cosmos-2251-debris", "lat": -17.24245056370262, "lon": 29.157815445749446, "alt_km": 825.0531235767548, "timestamp": "2025-12-04T17:48:40.562458+00:00", "meta": {"OBJECT_NAME": "COSMOS 2251 DEB", "OBJECT_ID": "1993-036BFR", "EPOCH": "2025-12-02T08:23:30.966144", "MEAN_MOTION": 14.03314809, "ECCENTRICITY": 0.01958196, "INCLINATION": 73.8483, "RA_OF_ASC_NODE": 208.2093, "ARG_OF_PERICENTER": 267.7854, "MEAN_ANOMALY": 90.0848, "EPHEMERIS_TYPE": 0, "CLASSIFICATION_TYPE": "U", "NORAD_CAT_ID": 37095, "ELEMENT_SET_NO": 999, "REV_AT_EPOCH": 62490, "BSTAR": 0.0015878918, "MEAN_MOTION_DOT": 2.912e-05, "MEAN_MOTION_DDOT": 0}, "tle": {"line1": "1 37095U 93036BFR 25336.34966396  .00002912  00000+0  15879-2 0  9995", "line2": "2 37095  73.8483 208.2093 0195819 267.7854  90.0848 14.03314809624908"}}, "geometry": {"type": "Point", "coordinates": [29.157815445749446, -17.24245056370262]}}, {"type": "Feature", "properties": {"norad_id": 37108, "name": "COSMOS 2251 DEB", "group": "cosmos-2251-debris", "lat": -51.53719300120688, "lon": -63.522664873682665, "alt_km": 728.410295740201, "timestamp": "2025-12-04T17:48:40.562469+00:00", "meta": {"OBJECT_NAME": "COSMOS 2251 DEB", "OBJECT_ID": "1993-036BGE", "EPOCH": "2025-12-02T08:05:10.630176", "MEAN_MOTION": 14.41120633, "ECCENTRICITY": 0.00925525, "INCLINATION": 74.0427, "RA_OF_ASC_NODE": 99.8151, "ARG_OF_PERICENTER": 178.899, "MEAN_ANOMALY": 181.2388, "EPHEMERIS_TYPE": 0, "CLASSIFICATION_TYPE": "U", "NORAD_CAT_ID": 37108, "ELEMENT_SET_NO": 999, "REV_AT_EPOCH": 85357, "BSTAR": 0.0020748567, "MEAN_MOTION_DOT": 7.015e-05, "MEAN_MOTION_DDOT": 0}, "tle": {"line1": "1 37108U 93036BGE 25336.33692859  .00007015  00000+0  20749-2 0  9990", "line2": "2 37108  74.0427  99.8151 0092552 178.8990 181.2388 14.41120633853577"}}, "geometry": {"type": "Point", "coordinates": [-63.522664873682665, -51.53719300120688]}}, {"type": "Feature", "properties": {"norad_id": 37126, "name": "COSMOS 2251 DEB", "group": "cosmos-2251-debris", "lat": -57.97198263843314, "lon": -17.181462967279575, "alt_km": 599.7482201607554, "timestamp": "2025-12-04T17:48:40.562479+00:00", "meta": {"OBJECT_NAME": "COSMOS 2251 DEB", "OBJECT_ID": "1993-036BGY", "EPOCH": "2025-11-27T19:49:48.379296", "MEAN_MOTION": 14.7298682, "ECCENTRICITY": 0.01235898, "INCLINATION": 73.9551, "RA_OF_ASC_NODE": 23.7462, "ARG_OF_PERICENTER": 265.0836, "MEAN_ANOMALY": 93.6217, "EPHEMERIS_TYPE": 0, "CLASSIFICATION_TYPE": "U", "NORAD_CAT_ID": 37126, "ELEMENT_SET_NO": 999, "REV_AT_EPOCH": 7879, "BSTAR": 0.00028630481, "MEAN_MOTION_DOT": 2.036e-05, "MEAN_MOTION_DDOT": 0}, "tle": {"line1": "1 37126U 93036BGY 25331.82625439  .00002036  00000+0  28630-3 0  9995", "line2": "2 37126  73.9551  23.7462 0123589 265.0836  93.6217 14.72986820 78799"}}, "geometry": {"type": "Point", "coordinates": [-17.181462967279575, -57.97198263843314]}}, {"type": "Feature", "properties": {"norad_id": 37132, "name": "COSMOS 2251 DEB", "group": "cosmos-2251-debris", "lat": -34.30595318196517, "lon": 81.06173394727064, "alt_km": 669.7778380826194, "timestamp": "2025-12-04T17:48:40.562489+00:00", "meta": {"OBJECT_NAME": "COSMOS 2251 DEB", "OBJECT_ID": "1993-036BHE", "EPOCH": "2025-11-29T01:57:55.161216", "MEAN_MOTION": 14.77491911, "ECCENTRICITY": 0.00393056, "INCLINATION": 74.0019, "RA_OF_ASC_NODE": 260.8973, "ARG_OF_PERICENTER": 60.0895, "MEAN_ANOMALY": 300.4174, "EPHEMERIS_TYPE": 0, "CLASSIFICATION_TYPE": "U", "NORAD_CAT_ID": 37132, "ELEMENT_SET_NO": 999, "REV_AT_EPOCH": 62214, "BSTAR": 0.0012599445, "MEAN_MOTION_DOT": 9.078e-05, "MEAN_MOTION_DDOT": 0}, "tle": {"line1": "1 37132U 93036BHE 25333.08188844  .00009078  00000+0  12599-2 0  9995", "line2": "2 37132  74.0019 260.8973 0039305  60.0895 300.4174 14.77491911622140"}}, "geometry": {"type": "Point", "coordinates": [81.06173394727064, -34.30595318196517]}}, {"type": "Feature", "properties": {"norad_id": 37270, "name": "COSMOS 2251 DEB", "group": "cosmos-2251-debris", "lat": 12.260581362146501, "lon": 165.353766280543, "alt_km": 1322.2883741041978, "timestamp": "2025-12-04T17:48:40.562499+00:00", "meta": {"OBJECT_NAME": "COSMOS 2251 DEB", "OBJECT_ID": "1993-036BHJ", "EPOCH": "2025-12-03T02:09:07.651296", "MEAN_MOTION": 13.5964515, "ECCENTRICITY": 0.03986272, "INCLINATION": 73.9369, "RA_OF_ASC_NODE": 351.6378, "ARG_OF_PERICENTER": 5.2253, "MEAN_ANOMALY": 355.2829, "EPHEMERIS_TYPE": 0, "CLASSIFICATION_TYPE": "U", "NORAD_CAT_ID": 37270, "ELEMENT_SET_NO": 999, "REV_AT_EPOCH": 76938, "BSTAR": 0.0042938576, "MEAN_MOTION_DOT": 5.363e-05, "MEAN_MOTION_DDOT": 0}, "tle": {"line1": "1 37270U 93036BHJ 25337.08967189  .00005363  00000+0  42939-2 0  9993", "line2": "2 37270  73.9369 351.6378 0398627   5.2253 355.2829 13.59645150769389"}}, "geometry": {"type": "Point", "coordinates": [165.353766280543, 12.260581362146501]}}]}